[{"OBJECT_NAME":"ALTAIR (RS65S)","OBJECT_ID":"2024-199AW","EPOCH":"2026-03-09T21:31:54.569568","MEAN_MOTION":15.34998047,"ECCENTRICITY":0.00120363,"INCLINATION":97.3179,"RA_OF_ASC_NODE":298.9542,"ARG_OF_PERICENTER":307.5319,"MEAN_ANOMALY":52.483,"EPHEMERIS_TYPE":0,"CLASSIFICATION_TYPE":"U","NORAD_CAT_ID":61779,"ELEMENT_SET_NO":999,"REV_AT_EPOCH":12187,"BSTAR":0.00027541775,"MEAN_MOTION_DOT":9.293e-5,"MEAN_MOTION_DDOT":0},{"OBJECT_NAME":"STARLINK-36057","OBJECT_ID":"2025-283G","EPOCH":"2026-03-09T05:57:19.221696","MEAN_MOTION":15.30188592,"ECCENTRICITY":0.0001141,"INCLINATION":53.1603,"RA_OF_ASC_NODE":26.428,"ARG_OF_PERICENTER":79.9322,"MEAN_ANOMALY":280.1808,"EPHEMERIS_TYPE":0,"CLASSIFICATION_TYPE":"U","NORAD_CAT_ID":66884,"ELEMENT_SET_NO":999,"REV_AT_EPOCH":1577,"BSTAR":0.0011441646,"MEAN_MOTION_DOT":0.00033669,"MEAN_MOTION_DDOT":0}]
